[{"OBJECT_NAME":"APRIZESAT 2","OBJECT_ID":"2004-025A","EPOCH":"2026-03-14T10:42:47.586240","MEAN_MOTION":14.37992684,"ECCENTRICITY":0.01058,"INCLINATION":98.0919,"RA_OF_ASC_NODE":244.8329,"ARG_OF_PERICENTER":175.4537,"MEAN_ANOMALY":184.7638,"EPHEMERIS_TYPE":0,"CLASSIFICATION_TYPE":"U","NORAD_CAT_ID":28366,"ELEMENT_SET_NO":999,"REV_AT_EPOCH":13802,"BSTAR":0.00012683956,"MEAN_MOTION_DOT":3.67e-6,"MEAN_MOTION_DDOT":0},{"OBJECT_NAME":"SAUDICOMSAT 1","OBJECT_ID":"2004-025D","EPOCH":"2026-03-14T13:20:57.826176","MEAN_MOTION":14.55395642,"ECCENTRICITY":0.00313009,"INCLINATION":98.5807,"RA_OF_ASC_NODE":81.1233,"ARG_OF_PERICENTER":314.9732,"MEAN_ANOMALY":44.8927,"EPHEMERIS_TYPE":0,"CLASSIFICATION_TYPE":"U","NORAD_CAT_ID":28369,"ELEMENT_SET_NO":999,"REV_AT_EPOCH":15036,"BSTAR":0.0001444964,"MEAN_MOTION_DOT":5.81e-6,"MEAN_MOTION_DDOT":0},{"OBJECT_NAME":"SAUDICOMSAT 2","OBJECT_ID":"2004-025E","EPOCH":"2026-03-14T14:01:23.624544","MEAN_MOTION":14.49913893,"ECCENTRICITY":0.00555113,"INCLINATION":98.6685,"RA_OF_ASC_NODE":83.1422,"ARG_OF_PERICENTER":184.9242,"MEAN_ANOMALY":175.1412,"EPHEMERIS_TYPE":0,"CLASSIFICATION_TYPE":"U","NORAD_CAT_ID":28370,"ELEMENT_SET_NO":999,"REV_AT_EPOCH":14639,"BSTAR":0.00011569975,"MEAN_MOTION_DOT":4.06e-6,"MEAN_MOTION_DDOT":0},{"OBJECT_NAME":"APRIZESAT 1","OBJECT_ID":"2004-025G","EPOCH":"2026-03-14T14:17:18.639168","MEAN_MOTION":14.51719393,"ECCENTRICITY":0.00458062,"INCLINATION":98.6343,"RA_OF_ASC_NODE":81.7313,"ARG_OF_PERICENTER":83.0765,"MEAN_ANOMALY":277.5637,"EPHEMERIS_TYPE":0,"CLASSIFICATION_TYPE":"U","NORAD_CAT_ID":28372,"ELEMENT_SET_NO":999,"REV_AT_EPOCH":14818,"BSTAR":0.00011142536,"MEAN_MOTION_DOT":4.04e-6,"MEAN_MOTION_DDOT":0},{"OBJECT_NAME":"NANOSAT-1","OBJECT_ID":"2004-049B","EPOCH":"2026-03-14T07:38:11.292864","MEAN_MOTION":14.79937294,"ECCENTRICITY":0.00031178,"INCLINATION":98.2107,"RA_OF_ASC_NODE":207.7569,"ARG_OF_PERICENTER":225.1478,"MEAN_ANOMALY":134.948,"EPHEMERIS_TYPE":0,"CLASSIFICATION_TYPE":"U","NORAD_CAT_ID":28493,"ELEMENT_SET_NO":999,"REV_AT_EPOCH":14141,"BSTAR":0.00021743107,"MEAN_MOTION_DOT":1.587e-5,"MEAN_MOTION_DDOT":0},{"OBJECT_NAME":"SAUDICOMSAT 7","OBJECT_ID":"2007-012C","EPOCH":"2026-03-14T10:46:20.344512","MEAN_MOTION":14.65979009,"ECCENTRICITY":0.00567277,"INCLINATION":98.3687,"RA_OF_ASC_NODE":45.6988,"ARG_OF_PERICENTER":132.4557,"MEAN_ANOMALY":228.1462,"EPHEMERIS_TYPE":0,"CLASSIFICATION_TYPE":"U","NORAD_CAT_ID":31119,"ELEMENT_SET_NO":999,"REV_AT_EPOCH":855,"BSTAR":0.00015024924,"MEAN_MOTION_DOT":7.89e-6,"MEAN_MOTION_DDOT":0},{"OBJECT_NAME":"SAUDICOMSAT 6","OBJECT_ID":"2007-012E","EPOCH":"2026-03-13T09:00:27.372384","MEAN_MOTION":14.62438817,"ECCENTRICITY":0.00706192,"INCLINATION":98.3993,"RA_OF_ASC_NODE":38.1759,"ARG_OF_PERICENTER":265.1,"MEAN_ANOMALY":94.2135,"EPHEMERIS_TYPE":0,"CLASSIFICATION_TYPE":"U","NORAD_CAT_ID":31121,"ELEMENT_SET_NO":999,"REV_AT_EPOCH":618,"BSTAR":0.00016736262,"MEAN_MOTION_DOT":8.24e-6,"MEAN_MOTION_DDOT":0},{"OBJECT_NAME":"SAUDICOMSAT 5","OBJECT_ID":"2007-012H","EPOCH":"2026-03-14T10:01:19.452000","MEAN_MOTION":14.68014044,"ECCENTRICITY":0.00487447,"INCLINATION":98.3398,"RA_OF_ASC_NODE":46.432,"ARG_OF_PERICENTER":64.4747,"MEAN_ANOMALY":296.1486,"EPHEMERIS_TYPE":0,"CLASSIFICATION_TYPE":"U","NORAD_CAT_ID":31124,"ELEMENT_SET_NO":999,"REV_AT_EPOCH":969,"BSTAR":0.00019707875,"MEAN_MOTION_DOT":1.097e-5,"MEAN_MOTION_DDOT":0},{"OBJECT_NAME":"SAUDICOMSAT 3","OBJECT_ID":"2007-012J","EPOCH":"2026-03-14T09:43:21.134208","MEAN_MOTION":14.70539761,"ECCENTRICITY":0.00391259,"INCLINATION":98.3055,"RA_OF_ASC_NODE":46.9786,"ARG_OF_PERICENTER":353.796,"MEAN_ANOMALY":6.2756,"EPHEMERIS_TYPE":0,"CLASSIFICATION_TYPE":"U","NORAD_CAT_ID":31125,"ELEMENT_SET_NO":999,"REV_AT_EPOCH":1089,"BSTAR":0.00022680059,"MEAN_MOTION_DOT":1.339e-5,"MEAN_MOTION_DDOT":0},{"OBJECT_NAME":"SAUDICOMSAT 4","OBJECT_ID":"2007-012L","EPOCH":"2026-03-14T10:56:10.752864","MEAN_MOTION":14.643865,"ECCENTRICITY":0.00631673,"INCLINATION":98.3889,"RA_OF_ASC_NODE":44.1562,"ARG_OF_PERICENTER":193.2809,"MEAN_ANOMALY":166.6733,"EPHEMERIS_TYPE":0,"CLASSIFICATION_TYPE":"U","NORAD_CAT_ID":31127,"ELEMENT_SET_NO":999,"REV_AT_EPOCH":742,"BSTAR":0.00013953958,"MEAN_MOTION_DOT":7.05e-6,"MEAN_MOTION_DDOT":0},{"OBJECT_NAME":"APRIZESAT 4","OBJECT_ID":"2009-041D","EPOCH":"2026-03-14T04:09:31.192416","MEAN_MOTION":14.83718681,"ECCENTRICITY":0.00420686,"INCLINATION":98.1478,"RA_OF_ASC_NODE":146.588,"ARG_OF_PERICENTER":269.6936,"MEAN_ANOMALY":89.9457,"EPHEMERIS_TYPE":0,"CLASSIFICATION_TYPE":"U","NORAD_CAT_ID":35684,"ELEMENT_SET_NO":999,"REV_AT_EPOCH":89727,"BSTAR":0.00012270149,"MEAN_MOTION_DOT":9.71e-6,"MEAN_MOTION_DDOT":0},{"OBJECT_NAME":"APRIZESAT 3","OBJECT_ID":"2009-041F","EPOCH":"2026-03-14T09:26:36.978720","MEAN_MOTION":14.95917721,"ECCENTRICITY":0.00623811,"INCLINATION":98.1899,"RA_OF_ASC_NODE":222.1705,"ARG_OF_PERICENTER":20.9503,"MEAN_ANOMALY":339.4251,"EPHEMERIS_TYPE":0,"CLASSIFICATION_TYPE":"U","NORAD_CAT_ID":35686,"ELEMENT_SET_NO":999,"REV_AT_EPOCH":90220,"BSTAR":0.00014982325,"MEAN_MOTION_DOT":1.675e-5,"MEAN_MOTION_DDOT":0},{"OBJECT_NAME":"S-NET D","OBJECT_ID":"2018-014G","EPOCH":"2026-03-14T15:01:21.270432","MEAN_MOTION":15.15700209,"ECCENTRICITY":0.00082958,"INCLINATION":97.5434,"RA_OF_ASC_NODE":339.0384,"ARG_OF_PERICENTER":358.5907,"MEAN_ANOMALY":1.5301,"EPHEMERIS_TYPE":0,"CLASSIFICATION_TYPE":"U","NORAD_CAT_ID":43186,"ELEMENT_SET_NO":999,"REV_AT_EPOCH":44443,"BSTAR":0.00045144263,"MEAN_MOTION_DOT":8.541e-5,"MEAN_MOTION_DDOT":0},{"OBJECT_NAME":"S-NET B","OBJECT_ID":"2018-014H","EPOCH":"2026-03-14T05:44:50.017056","MEAN_MOTION":15.15665579,"ECCENTRICITY":0.00088807,"INCLINATION":97.5441,"RA_OF_ASC_NODE":338.6379,"ARG_OF_PERICENTER":355.4646,"MEAN_ANOMALY":4.6504,"EPHEMERIS_TYPE":0,"CLASSIFICATION_TYPE":"U","NORAD_CAT_ID":43187,"ELEMENT_SET_NO":999,"REV_AT_EPOCH":44437,"BSTAR":0.00034223741,"MEAN_MOTION_DOT":6.451e-5,"MEAN_MOTION_DDOT":0},{"OBJECT_NAME":"S-NET A","OBJECT_ID":"2018-014J","EPOCH":"2026-03-14T07:05:03.024960","MEAN_MOTION":15.1570053,"ECCENTRICITY":0.00087357,"INCLINATION":97.5449,"RA_OF_ASC_NODE":338.8851,"ARG_OF_PERICENTER":355.1215,"MEAN_ANOMALY":4.9931,"EPHEMERIS_TYPE":0,"CLASSIFICATION_TYPE":"U","NORAD_CAT_ID":43188,"ELEMENT_SET_NO":999,"REV_AT_EPOCH":44438,"BSTAR":0.0003788385,"MEAN_MOTION_DOT":7.156e-5,"MEAN_MOTION_DDOT":0},{"OBJECT_NAME":"S-NET C","OBJECT_ID":"2018-014K","EPOCH":"2026-03-14T07:24:44.901792","MEAN_MOTION":15.15659412,"ECCENTRICITY":0.00098378,"INCLINATION":97.5465,"RA_OF_ASC_NODE":338.9586,"ARG_OF_PERICENTER":346.3589,"MEAN_ANOMALY":13.7376,"EPHEMERIS_TYPE":0,"CLASSIFICATION_TYPE":"U","NORAD_CAT_ID":43189,"ELEMENT_SET_NO":999,"REV_AT_EPOCH":44293,"BSTAR":0.00034508123,"MEAN_MOTION_DOT":6.505e-5,"MEAN_MOTION_DDOT":0},{"OBJECT_NAME":"SALSAT","OBJECT_ID":"2020-068K","EPOCH":"2026-03-14T12:26:22.157664","MEAN_MOTION":15.28293668,"ECCENTRICITY":0.00080685,"INCLINATION":97.8858,"RA_OF_ASC_NODE":70.9296,"ARG_OF_PERICENTER":275.9056,"MEAN_ANOMALY":84.1263,"EPHEMERIS_TYPE":0,"CLASSIFICATION_TYPE":"U","NORAD_CAT_ID":46495,"ELEMENT_SET_NO":999,"REV_AT_EPOCH":30089,"BSTAR":0.00046003648,"MEAN_MOTION_DOT":0.00012617,"MEAN_MOTION_DDOT":0}]
