APRIZESAT 2             
1 28366U 04025A   26073.44638410  .00000367  00000+0  12684-3 0  9993
2 28366  98.0919 244.8329 0105800 175.4537 184.7638 14.37992684138025
SAUDICOMSAT 1           
1 28369U 04025D   26073.55622484  .00000581  00000+0  14450-3 0  9993
2 28369  98.5807  81.1233 0031300 314.9732  44.8927 14.55395642150364
SAUDICOMSAT 2           
1 28370U 04025E   26073.58430121  .00000406  00000+0  11570-3 0  9999
2 28370  98.6685  83.1422 0055511 184.9242 175.1412 14.49913893146396
APRIZESAT 1             
1 28372U 04025G   26073.59535462  .00000404  00000+0  11143-3 0  9990
2 28372  98.6343  81.7313 0045806  83.0765 277.5637 14.51719393148184
NANOSAT-1               
1 28493U 04049B   26073.31818626  .00001587  00000+0  21743-3 0  9996
2 28493  98.2107 207.7569 0003117 225.1478 134.9480 14.79937294141417
SAUDICOMSAT 7           
1 31119U 07012C   26073.44884658  .00000789  00000+0  15025-3 0  9999
2 31119  98.3687  45.6988 0056727 132.4557 228.1462 14.65979009  8555
SAUDICOMSAT 6           
1 31121U 07012E   26072.37531681  .00000824  00000+0  16736-3 0  9998
2 31121  98.3993  38.1759 0070619 265.1000  94.2135 14.62438817  6184
SAUDICOMSAT 5           
1 31124U 07012H   26073.41758625  .00001097  00000+0  19708-3 0  9991
2 31124  98.3398  46.4320 0048744  64.4747 296.1486 14.68014044  9693
SAUDICOMSAT 3           
1 31125U 07012J   26073.40510572  .00001339  00000+0  22680-3 0  9990
2 31125  98.3055  46.9786 0039125 353.7960   6.2756 14.70539761 10894
SAUDICOMSAT 4           
1 31127U 07012L   26073.45568001  .00000705  00000+0  13954-3 0  9997
2 31127  98.3889  44.1562 0063167 193.2809 166.6733 14.64386500  7420
APRIZESAT 4             
1 35684U 09041D   26073.17327769  .00000971  00000+0  12270-3 0  9991
2 35684  98.1478 146.5880 0042068 269.6936  89.9457 14.83718681897270
APRIZESAT 3             
1 35686U 09041F   26073.39348355  .00001675  00000+0  14982-3 0  9995
2 35686  98.1899 222.1705 0062381  20.9503 339.4251 14.95917721902208
S-NET D                 
1 43186U 18014G   26073.62594063  .00008541  00000+0  45144-3 0  9997
2 43186  97.5434 339.0384 0008295 358.5907   1.5301 15.15700209444436
S-NET B                 
1 43187U 18014H   26073.23946779  .00006451  00000+0  34224-3 0  9995
2 43187  97.5441 338.6379 0008880 355.4646   4.6504 15.15665579444372
S-NET A                 
1 43188U 18014J   26073.29517390  .00007156  00000+0  37884-3 0  9993
2 43188  97.5449 338.8851 0008735 355.1215   4.9931 15.15700530444381
S-NET C                 
1 43189U 18014K   26073.30885303  .00006505  00000+0  34508-3 0  9995
2 43189  97.5465 338.9586 0009837 346.3589  13.7376 15.15659412442938
SALSAT                  
1 46495U 20068K   26073.51831201  .00012617  00000+0  46004-3 0  9996
2 46495  97.8858  70.9296 0008068 275.9056  84.1263 15.28293668300898
